{
  "type": "FeatureCollection",
  "features": [
    {
      "type": "Feature",
      "properties": { "name": "Aguascalientes" },
      "geometry": { "type": "Polygon", "coordinates": [[[0, 0], [1, 0], [1, 1], [0, 1], [0, 0]]] }
    },
    {
      "type": "Feature",
      "properties": { "name": "Baja California" },
      "geometry": { "type": "Polygon", "coordinates": [[[1, 1], [2, 1], [2, 2], [1, 2], [1, 1]]] }
    },
    {
      "type": "Feature",
      "properties": { "name": "Baja California Sur" },
      "geometry": { "type": "Polygon", "coordinates": [[[2, 2], [3, 2], [3, 3], [2, 3], [2, 2]]] }
    },
    {
      "type": "Feature",
      "properties": { "name": "Campeche" },
      "geometry": { "type": "Polygon", "coordinates": [[[3, 3], [4, 3], [4, 4], [3, 4], [3, 3]]] }
    },
    {
      "type": "Feature",
      "properties": { "name": "Chiapas" },
      "geometry": { "type": "Polygon", "coordinates": [[[4, 4], [5, 4], [5, 5], [4, 5], [4, 4]]] }
    },
    {
      "type": "Feature",
      "properties": { "name": "Chihuahua" },
      "geometry": { "type": "Polygon", "coordinates": [[[5, 5], [6, 5], [6, 6], [5, 6], [5, 5]]] }
    },
    {
      "type": "Feature",
      "properties": { "name": "Ciudad de México" },
      "geometry": { "type": "Polygon", "coordinates": [[[6, 6], [7, 6], [7, 7], [6, 7], [6, 6]]] }
    },
    {
      "type": "Feature",
      "properties": { "name": "Coahuila" },
      "geometry": { "type": "Polygon", "coordinates": [[[7, 7], [8, 7], [8, 8], [7, 8], [7, 7]]] }
    },
    {
      "type": "Feature",
      "properties": { "name": "Colima" },
      "geometry": { "type": "Polygon", "coordinates": [[[8, 8], [9, 8], [9, 9], [8, 9], [8, 8]]] }
    },
    {
      "type": "Feature",
      "properties": { "name": "Durango" },
      "geometry": { "type": "Polygon", "coordinates": [[[9, 9], [10, 9], [10, 10], [9, 10], [9, 9]]] }
    },
    {
      "type": "Feature",
      "properties": { "name": "Estado de México" },
      "geometry": { "type": "Polygon", "coordinates": [[[10, 10], [11, 10], [11, 11], [10, 11], [10, 10]]] }
    },
    {
      "type": "Feature",
      "properties": { "name": "Guanajuato" },
      "geometry": { "type": "Polygon", "coordinates": [[[11, 11], [12, 11], [12, 12], [11, 12], [11, 11]]] }
    },
    {
      "type": "Feature",
      "properties": { "name": "Guerrero" },
      "geometry": { "type": "Polygon", "coordinates": [[[12, 12], [13, 12], [13, 13], [12, 13], [12, 12]]] }
    },
    {
      "type": "Feature",
      "properties": { "name": "Hidalgo" },
      "geometry": { "type": "Polygon", "coordinates": [[[13, 13], [14, 13], [14, 14], [13, 14], [13, 13]]] }
    },
    {
      "type": "Feature",
      "properties": { "name": "Jalisco" },
      "geometry": { "type": "Polygon", "coordinates": [[[14, 14], [15, 14], [15, 15], [14, 15], [14, 14]]] }
    },
    {
      "type": "Feature",
      "properties": { "name": "Michoacán" },
      "geometry": { "type": "Polygon", "coordinates": [[[15, 15], [16, 15], [16, 16], [15, 16], [15, 15]]] }
    },
    {
      "type": "Feature",
      "properties": { "name": "Morelos" },
      "geometry": { "type": "Polygon", "coordinates": [[[16, 16], [17, 16], [17, 17], [16, 17], [16, 16]]] }
    },
    {
      "type": "Feature",
      "properties": { "name": "Nayarit" },
      "geometry": { "type": "Polygon", "coordinates": [[[17, 17], [18, 17], [18, 18], [17, 18], [17, 17]]] }
    },
    {
      "type": "Feature",
      "properties": { "name": "Nuevo León" },
      "geometry": { "type": "Polygon", "coordinates": [[[18, 18], [19, 18], [19, 19], [18, 19], [18, 18]]] }
    },
    {
      "type": "Feature",
      "properties": { "name": "Oaxaca" },
      "geometry": { "type": "Polygon", "coordinates": [[[19, 19], [20, 19], [20, 20], [19, 20], [19, 19]]] }
    },
    {
      "type": "Feature",
      "properties": { "name": "Puebla" },
      "geometry": { "type": "Polygon", "coordinates": [[[20, 20], [21, 20], [21, 21], [20, 21], [20, 20]]] }
    },
    {
      "type": "Feature",
      "properties": { "name": "Querétaro" },
      "geometry": { "type": "Polygon", "coordinates": [[[21, 21], [22, 21], [22, 22], [21, 22], [21, 21]]] }
    },
    {
      "type": "Feature",
      "properties": { "name": "Quintana Roo" },
      "geometry": { "type": "Polygon", "coordinates": [[[22, 22], [23, 22], [23, 23], [22, 23], [22, 22]]] }
    },
    {
      "type": "Feature",
      "properties": { "name": "San Luis Potosí" },
      "geometry": { "type": "Polygon", "coordinates": [[[23, 23], [24, 23], [24, 24], [23, 24], [23, 23]]] }
    },
    {
      "type": "Feature",
      "properties": { "name": "Sinaloa" },
      "geometry": { "type": "Polygon", "coordinates": [[[24, 24], [25, 24], [25, 25], [24, 25], [24, 24]]] }
    },
    {
      "type": "Feature",
      "properties": { "name": "Sonora" },
      "geometry": { "type": "Polygon", "coordinates": [[[25, 25], [26, 25], [26, 26], [25, 26], [25, 25]]] }
    },
    {
      "type": "Feature",
      "properties": { "name": "Tabasco" },
      "geometry": { "type": "Polygon", "coordinates": [[[26, 26], [27, 26], [27, 27], [26, 27], [26, 26]]] }
    },
    {
      "type": "Feature",
      "properties": { "name": "Tamaulipas" },
      "geometry": { "type": "Polygon", "coordinates": [[[27, 27], [28, 27], [28, 28], [27, 28], [27, 27]]] }
    },
    {
      "type": "Feature",
      "properties": { "name": "Tlaxcala" },
      "geometry": { "type": "Polygon", "coordinates": [[[28, 28], [29, 28], [29, 29], [28, 29], [28, 28]]] }
    },
    {
      "type": "Feature",
      "properties": { "name": "Veracruz" },
      "geometry": { "type": "Polygon", "coordinates": [[[29, 29], [30, 29], [30, 30], [29, 30], [29, 29]]] }
    },
    {
      "type": "Feature",
      "properties": { "name": "Yucatán" },
      "geometry": { "type": "Polygon", "coordinates": [[[30, 30], [31, 30], [31, 31], [30, 31], [30, 30]]] }
    },
    {
      "type": "Feature",
      "properties": { "name": "Zacatecas" },
      "geometry": { "type": "Polygon", "coordinates": [[[31, 31], [32, 31], [32, 32], [31, 32], [31, 31]]] }
    }
  ]
}
